[
  {
    "pincode": "638001",
    "area": "Erode Market",
    "district": "ERODE",
    "state": "TAMIL NADU"
  },
  {
    "pincode": "638001",
    "area": "Erode East",
    "district": "ERODE",
    "state": "TAMIL NADU"
  },
  {
    "pincode": "638001",
    "area": "Erode",
    "district": "ERODE",
    "state": "TAMIL NADU"
  },
  {
    "pincode": "638002",
    "area": "Lakkapuram",
    "district": "ERODE",
    "state": "TAMIL NADU"
  },
  {
    "pincode": "638002",
    "area": "Mulapalayam",
    "district": "ERODE",
    "state": "TAMIL NADU"
  },
  {
    "pincode": "638002",
    "area": "Pudur",
    "district": "ERODE",
    "state": "TAMIL NADU"
  },
  {
    "pincode": "638002",
    "area": "Kollampalayam",
    "district": "ERODE",
    "state": "TAMIL NADU"
  },
  {
    "pincode": "638002",
    "area": "Erode Railway Colony",
    "district": "ERODE",
    "state": "TAMIL NADU"
  },
  {
    "pincode": "638002",
    "area": "Solar",
    "district": "ERODE",
    "state": "TAMIL NADU"
  },
  {
    "pincode": "638003",
    "area": "Karungalpalayam",
    "district": "ERODE",
    "state": "TAMIL NADU"
  },
  {
    "pincode": "638003",
    "area": "Vairapalayam",
    "district": "ERODE",
    "state": "TAMIL NADU"
  },
  {
    "pincode": "638004",
    "area": "Peria Semur",
    "district": "ERODE",
    "state": "TAMIL NADU"
  },
  {
    "pincode": "638004",
    "area": "ERODE MUNICIPAL COLONY",
    "district": "ERODE",
    "state": "TAMIL NADU"
  },
  {
    "pincode": "638004",
    "area": "Chikkaiah Naicker College",
    "district": "ERODE",
    "state": "TAMIL NADU"
  },
  {
    "pincode": "638004",
    "area": "Veerappanchatram",
    "district": "ERODE",
    "state": "TAMIL NADU"
  },
  {
    "pincode": "638005",
    "area": "Peria Agraharam",
    "district": "ERODE",
    "state": "TAMIL NADU"
  },
  {
    "pincode": "638005",
    "area": "Ramanathapuram Pudur",
    "district": "ERODE",
    "state": "TAMIL NADU"
  },
  {
    "pincode": "638009",
    "area": "Kasipalayam",
    "district": "ERODE",
    "state": "TAMIL NADU"
  },
  {
    "pincode": "638009",
    "area": "Rangampalayam",
    "district": "ERODE",
    "state": "TAMIL NADU"
  },
  {
    "pincode": "638009",
    "area": "Surampatti",
    "district": "ERODE",
    "state": "TAMIL NADU"
  },
  {
    "pincode": "638011",
    "area": "Erode Collectorate",
    "district": "ERODE",
    "state": "TAMIL NADU"
  },
  {
    "pincode": "638012",
    "area": "Thindal",
    "district": "ERODE",
    "state": "TAMIL NADU"
  },
  {
    "pincode": "638051",
    "area": "Kandappagoundenvalasu",
    "district": "ERODE",
    "state": "TAMIL NADU"
  },
  {
    "pincode": "638051",
    "area": "Murungatholuvu",
    "district": "ERODE",
    "state": "TAMIL NADU"
  },
  {
    "pincode": "638051",
    "area": "Ramalingapuram",
    "district": "ERODE",
    "state": "TAMIL NADU"
  },
  {
    "pincode": "638051",
    "area": "Sanarpalayam",
    "district": "ERODE",
    "state": "TAMIL NADU"
  },
  {
    "pincode": "638051",
    "area": "Chennimalai",
    "district": "ERODE",
    "state": "TAMIL NADU"
  },
  {
    "pincode": "638051",
    "area": "Basuvapatti",
    "district": "ERODE",
    "state": "TAMIL NADU"
  },
  {
    "pincode": "638051",
    "area": "Ramalingapuram South",
    "district": "ERODE",
    "state": "TAMIL NADU"
  },
  {
    "pincode": "638051",
    "area": "Mukasipidariyur",
    "district": "ERODE",
    "state": "TAMIL NADU"
  },
  {
    "pincode": "638051",
    "area": "Thoppupalayam",
    "district": "ERODE",
    "state": "TAMIL NADU"
  },
  {
    "pincode": "638052",
    "area": "Periyavettuvapalayam",
    "district": "ERODE",
    "state": "TAMIL NADU"
  },
  {
    "pincode": "638052",
    "area": "Pichandampalayam",
    "district": "ERODE",
    "state": "TAMIL NADU"
  },
  {
    "pincode": "638052",
    "area": "Perundurai RS",
    "district": "ERODE",
    "state": "TAMIL NADU"
  },
  {
    "pincode": "638052",
    "area": "Ingur",
    "district": "ERODE",
    "state": "TAMIL NADU"
  },
  {
    "pincode": "638052",
    "area": "Karumandisellipalayam",
    "district": "ERODE",
    "state": "TAMIL NADU"
  },
  {
    "pincode": "638052",
    "area": "Olapalayam",
    "district": "ERODE",
    "state": "TAMIL NADU"
  },
  {
    "pincode": "638052",
    "area": "Perundurai",
    "district": "ERODE",
    "state": "TAMIL NADU"
  },
  {
    "pincode": "638053",
    "area": "Perundurai Sanitorium",
    "district": "ERODE",
    "state": "TAMIL NADU"
  },
  {
    "pincode": "638054",
    "area": "Siruvalur",
    "district": "ERODE",
    "state": "TAMIL NADU"
  },
  {
    "pincode": "638054",
    "area": "Vellankoil",
    "district": "ERODE",
    "state": "TAMIL NADU"
  },
  {
    "pincode": "638055",
    "area": "Kuthambi",
    "district": "ERODE",
    "state": "TAMIL NADU"
  },
  {
    "pincode": "638055",
    "area": "Pappampalayam",
    "district": "ERODE",
    "state": "TAMIL NADU"
  },
  {
    "pincode": "638055",
    "area": "Tingalur",
    "district": "ERODE",
    "state": "TAMIL NADU"
  },
  {
    "pincode": "638055",
    "area": "Nichampalayam",
    "district": "ERODE",
    "state": "TAMIL NADU"
  },
  {
    "pincode": "638055",
    "area": "Vettayankinar",
    "district": "ERODE",
    "state": "TAMIL NADU"
  },
  {
    "pincode": "638056",
    "area": "Kambiliyampatti",
    "district": "ERODE",
    "state": "TAMIL NADU"
  },
  {
    "pincode": "638056",
    "area": "Periaveerasangli",
    "district": "ERODE",
    "state": "TAMIL NADU"
  },
  {
    "pincode": "638056",
    "area": "Vijayamangalam",
    "district": "ERODE",
    "state": "TAMIL NADU"
  },
  {
    "pincode": "638056",
    "area": "Greynagar",
    "district": "ERODE",
    "state": "TAMIL NADU"
  },
  {
    "pincode": "638056",
    "area": "Ponmudi",
    "district": "ERODE",
    "state": "TAMIL NADU"
  },
  {
    "pincode": "638056",
    "area": "Voipodi",
    "district": "ERODE",
    "state": "TAMIL NADU"
  },
  {
    "pincode": "638056",
    "area": "Kaikolapalayam",
    "district": "ERODE",
    "state": "TAMIL NADU"
  },
  {
    "pincode": "638057",
    "area": "Nallampatti",
    "district": "ERODE",
    "state": "TAMIL NADU"
  },
  {
    "pincode": "638057",
    "area": "Palakarai",
    "district": "ERODE",
    "state": "TAMIL NADU"
  },
  {
    "pincode": "638057",
    "area": "Pattakaranpalayam",
    "district": "ERODE",
    "state": "TAMIL NADU"
  },
  {
    "pincode": "638057",
    "area": "Seenapuram",
    "district": "ERODE",
    "state": "TAMIL NADU"
  },
  {
    "pincode": "638057",
    "area": "Sullipalayam",
    "district": "ERODE",
    "state": "TAMIL NADU"
  },
  {
    "pincode": "638057",
    "area": "Tudupathi",
    "district": "ERODE",
    "state": "TAMIL NADU"
  },
  {
    "pincode": "638060",
    "area": "Thoppupalayam",
    "district": "ERODE",
    "state": "TAMIL NADU"
  },
  {
    "pincode": "638101",
    "area": "Attavanai Hanumanpalli",
    "district": "ERODE",
    "state": "TAMIL NADU"
  },
  {
    "pincode": "638101",
    "area": "Kasthurbagram",
    "district": "ERODE",
    "state": "TAMIL NADU"
  },
  {
    "pincode": "638101",
    "area": "Palliyuthu",
    "district": "ERODE",
    "state": "TAMIL NADU"
  },
  {
    "pincode": "638101",
    "area": "Vadugapatti",
    "district": "ERODE",
    "state": "TAMIL NADU"
  },
  {
    "pincode": "638101",
    "area": "Arachalur",
    "district": "ERODE",
    "state": "TAMIL NADU"
  },
  {
    "pincode": "638101",
    "area": "Elavanatham",
    "district": "ERODE",
    "state": "TAMIL NADU"
  },
  {
    "pincode": "638101",
    "area": "Koothampatti",
    "district": "ERODE",
    "state": "TAMIL NADU"
  },
  {
    "pincode": "638101",
    "area": "Veerappampalayam",
    "district": "ERODE",
    "state": "TAMIL NADU"
  },
  {
    "pincode": "638101",
    "area": "Mukasi Hanumanpalli",
    "district": "ERODE",
    "state": "TAMIL NADU"
  },
  {
    "pincode": "638102",
    "area": "Chittode",
    "district": "ERODE",
    "state": "TAMIL NADU"
  },
  {
    "pincode": "638102",
    "area": "Perode",
    "district": "ERODE",
    "state": "TAMIL NADU"
  },
  {
    "pincode": "638102",
    "area": "Vadakkuthaiyurpalayam",
    "district": "ERODE",
    "state": "TAMIL NADU"
  },
  {
    "pincode": "638102",
    "area": "Gangapuram",
    "district": "ERODE",
    "state": "TAMIL NADU"
  },
  {
    "pincode": "638104",
    "area": "Komarayeevalasu",
    "district": "ERODE",
    "state": "TAMIL NADU"
  },
  {
    "pincode": "638104",
    "area": "Modakurichi",
    "district": "ERODE",
    "state": "TAMIL NADU"
  },
  {
    "pincode": "638104",
    "area": "Injampalli",
    "district": "ERODE",
    "state": "TAMIL NADU"
  },
  {
    "pincode": "638104",
    "area": "Purappalikattuvalasu",
    "district": "ERODE",
    "state": "TAMIL NADU"
  },
  {
    "pincode": "638104",
    "area": "Nanjai Uttukuli",
    "district": "ERODE",
    "state": "TAMIL NADU"
  },
  {
    "pincode": "638104",
    "area": "Sinniampalayam",
    "district": "ERODE",
    "state": "TAMIL NADU"
  },
  {
    "pincode": "638104",
    "area": "Swaminathapuram",
    "district": "ERODE",
    "state": "TAMIL NADU"
  },
  {
    "pincode": "638104",
    "area": "Velampalayam",
    "district": "ERODE",
    "state": "TAMIL NADU"
  },
  {
    "pincode": "638104",
    "area": "Elumathur",
    "district": "ERODE",
    "state": "TAMIL NADU"
  },
  {
    "pincode": "638107",
    "area": "Mullampatti",
    "district": "ERODE",
    "state": "TAMIL NADU"
  },
  {
    "pincode": "638107",
    "area": "Vilarasampatti",
    "district": "ERODE",
    "state": "TAMIL NADU"
  },
  {
    "pincode": "638107",
    "area": "Kadirampatti",
    "district": "ERODE",
    "state": "TAMIL NADU"
  },
  {
    "pincode": "638107",
    "area": "Nasiyanur",
    "district": "ERODE",
    "state": "TAMIL NADU"
  },
  {
    "pincode": "638108",
    "area": "Komarapalayam",
    "district": "ERODE",
    "state": "TAMIL NADU"
  },
  {
    "pincode": "638109",
    "area": "Kagam",
    "district": "ERODE",
    "state": "TAMIL NADU"
  },
  {
    "pincode": "638109",
    "area": "Thandampalayam",
    "district": "ERODE",
    "state": "TAMIL NADU"
  },
  {
    "pincode": "638109",
    "area": "Vazhaithottam",
    "district": "ERODE",
    "state": "TAMIL NADU"
  },
  {
    "pincode": "638109",
    "area": "Vilakethi",
    "district": "ERODE",
    "state": "TAMIL NADU"
  },
  {
    "pincode": "638109",
    "area": "Ammankoil",
    "district": "ERODE",
    "state": "TAMIL NADU"
  },
  {
    "pincode": "638109",
    "area": "Thattampalayam",
    "district": "ERODE",
    "state": "TAMIL NADU"
  },
  {
    "pincode": "638109",
    "area": "Karukkampalayam",
    "district": "ERODE",
    "state": "TAMIL NADU"
  },
  {
    "pincode": "638109",
    "area": "Minnapalayam",
    "district": "ERODE",
    "state": "TAMIL NADU"
  },
  {
    "pincode": "638109",
    "area": "Kandasamipalayam",
    "district": "ERODE",
    "state": "TAMIL NADU"
  },
  {
    "pincode": "638109",
    "area": "Sivagiri SO Erode",
    "district": "ERODE",
    "state": "TAMIL NADU"
  },
  {
    "pincode": "638110",
    "area": "Sokkumaripalayam",
    "district": "ERODE",
    "state": "TAMIL NADU"
  },
  {
    "pincode": "638110",
    "area": "Thoranavavi",
    "district": "ERODE",
    "state": "TAMIL NADU"
  },
  {
    "pincode": "638110",
    "area": "Kaliappampalayam",
    "district": "ERODE",
    "state": "TAMIL NADU"
  },
  {
    "pincode": "638110",
    "area": "Getticheyur",
    "district": "ERODE",
    "state": "TAMIL NADU"
  },
  {
    "pincode": "638112",
    "area": "Pungambadi",
    "district": "ERODE",
    "state": "TAMIL NADU"
  },
  {
    "pincode": "638112",
    "area": "Kanagapuram",
    "district": "ERODE",
    "state": "TAMIL NADU"
  },
  {
    "pincode": "638112",
    "area": "Vadamugam Vellode",
    "district": "ERODE",
    "state": "TAMIL NADU"
  },
  {
    "pincode": "638112",
    "area": "Gnanipalayam",
    "district": "ERODE",
    "state": "TAMIL NADU"
  },
  {
    "pincode": "638112",
    "area": "Kavundichipalayam",
    "district": "ERODE",
    "state": "TAMIL NADU"
  },
  {
    "pincode": "638112",
    "area": "TMettupalayam",
    "district": "ERODE",
    "state": "TAMIL NADU"
  },
  {
    "pincode": "638112",
    "area": "Vallipurathanpalayam",
    "district": "ERODE",
    "state": "TAMIL NADU"
  },
  {
    "pincode": "638115",
    "area": "Kandikattuvalasu",
    "district": "ERODE",
    "state": "TAMIL NADU"
  },
  {
    "pincode": "638115",
    "area": "Nathagoundenpalayam",
    "district": "ERODE",
    "state": "TAMIL NADU"
  },
  {
    "pincode": "638115",
    "area": "Solipalayam",
    "district": "ERODE",
    "state": "TAMIL NADU"
  },
  {
    "pincode": "638115",
    "area": "Thuyyampundurai",
    "district": "ERODE",
    "state": "TAMIL NADU"
  },
  {
    "pincode": "638115",
    "area": "Avalpundurai",
    "district": "ERODE",
    "state": "TAMIL NADU"
  },
  {
    "pincode": "638115",
    "area": "Kasbapettai",
    "district": "ERODE",
    "state": "TAMIL NADU"
  },
  {
    "pincode": "638115",
    "area": "Pundurai Semur",
    "district": "ERODE",
    "state": "TAMIL NADU"
  },
  {
    "pincode": "638115",
    "area": "Velankattuvalasu",
    "district": "ERODE",
    "state": "TAMIL NADU"
  },
  {
    "pincode": "638116",
    "area": "Thaneerpandalpalayam",
    "district": "ERODE",
    "state": "TAMIL NADU"
  },
  {
    "pincode": "638116",
    "area": "Pallapalayam",
    "district": "ERODE",
    "state": "TAMIL NADU"
  },
  {
    "pincode": "638116",
    "area": "Pethampalayam",
    "district": "ERODE",
    "state": "TAMIL NADU"
  },
  {
    "pincode": "638116",
    "area": "Kanjikovil",
    "district": "ERODE",
    "state": "TAMIL NADU"
  },
  {
    "pincode": "638116",
    "area": "Kovilpalayam",
    "district": "ERODE",
    "state": "TAMIL NADU"
  },
  {
    "pincode": "638151",
    "area": "Ayyampalayam",
    "district": "ERODE",
    "state": "TAMIL NADU"
  },
  {
    "pincode": "638151",
    "area": "Periavattam",
    "district": "ERODE",
    "state": "TAMIL NADU"
  },
  {
    "pincode": "638151",
    "area": "Anjur",
    "district": "ERODE",
    "state": "TAMIL NADU"
  },
  {
    "pincode": "638151",
    "area": "Ichipalayam",
    "district": "ERODE",
    "state": "TAMIL NADU"
  },
  {
    "pincode": "638151",
    "area": "Rasampalayam",
    "district": "ERODE",
    "state": "TAMIL NADU"
  },
  {
    "pincode": "638151",
    "area": "Kodumudi",
    "district": "ERODE",
    "state": "TAMIL NADU"
  },
  {
    "pincode": "638151",
    "area": "Avudayarparai",
    "district": "ERODE",
    "state": "TAMIL NADU"
  },
  {
    "pincode": "638151",
    "area": "Salaipudur",
    "district": "ERODE",
    "state": "TAMIL NADU"
  },
  {
    "pincode": "638152",
    "area": "Thamaraipalayam",
    "district": "ERODE",
    "state": "TAMIL NADU"
  },
  {
    "pincode": "638152",
    "area": "Unjalur",
    "district": "ERODE",
    "state": "TAMIL NADU"
  },
  {
    "pincode": "638152",
    "area": "Kolathupalayam",
    "district": "ERODE",
    "state": "TAMIL NADU"
  },
  {
    "pincode": "638152",
    "area": "Vadakkupudupalayam",
    "district": "ERODE",
    "state": "TAMIL NADU"
  },
  {
    "pincode": "638152",
    "area": "Vengambur",
    "district": "ERODE",
    "state": "TAMIL NADU"
  },
  {
    "pincode": "638153",
    "area": "Muthayeepalayam",
    "district": "ERODE",
    "state": "TAMIL NADU"
  },
  {
    "pincode": "638153",
    "area": "Mannathampalayam",
    "district": "ERODE",
    "state": "TAMIL NADU"
  },
  {
    "pincode": "638153",
    "area": "Ganapathipalayam",
    "district": "ERODE",
    "state": "TAMIL NADU"
  },
  {
    "pincode": "638154",
    "area": "Kolanalli",
    "district": "ERODE",
    "state": "TAMIL NADU"
  },
  {
    "pincode": "638154",
    "area": "Vellottamparappu",
    "district": "ERODE",
    "state": "TAMIL NADU"
  },
  {
    "pincode": "638154",
    "area": "Pasur",
    "district": "ERODE",
    "state": "TAMIL NADU"
  },
  {
    "pincode": "638154",
    "area": "Malayampalayam",
    "district": "ERODE",
    "state": "TAMIL NADU"
  },
  {
    "pincode": "638301",
    "area": "Bhavani",
    "district": "ERODE",
    "state": "TAMIL NADU"
  },
  {
    "pincode": "638301",
    "area": "Varnapuram",
    "district": "ERODE",
    "state": "TAMIL NADU"
  },
  {
    "pincode": "638301",
    "area": "Kuruppanaickenpalayam",
    "district": "ERODE",
    "state": "TAMIL NADU"
  },
  {
    "pincode": "638301",
    "area": "Bhavani Cutcherry",
    "district": "ERODE",
    "state": "TAMIL NADU"
  },
  {
    "pincode": "638311",
    "area": "Chinnapallam",
    "district": "ERODE",
    "state": "TAMIL NADU"
  },
  {
    "pincode": "638311",
    "area": "Kesarimangalam",
    "district": "ERODE",
    "state": "TAMIL NADU"
  },
  {
    "pincode": "638311",
    "area": "Sanyasipatti",
    "district": "ERODE",
    "state": "TAMIL NADU"
  },
  {
    "pincode": "638311",
    "area": "Singampettai",
    "district": "ERODE",
    "state": "TAMIL NADU"
  },
  {
    "pincode": "638311",
    "area": "Kadappanallur",
    "district": "ERODE",
    "state": "TAMIL NADU"
  },
  {
    "pincode": "638311",
    "area": "Umareddiyur",
    "district": "ERODE",
    "state": "TAMIL NADU"
  },
  {
    "pincode": "638311",
    "area": "Varadhanallur",
    "district": "ERODE",
    "state": "TAMIL NADU"
  },
  {
    "pincode": "638311",
    "area": "Ammapettai",
    "district": "ERODE",
    "state": "TAMIL NADU"
  },
  {
    "pincode": "638311",
    "area": "Budapadi",
    "district": "ERODE",
    "state": "TAMIL NADU"
  },
  {
    "pincode": "638311",
    "area": "Nerinjipettai",
    "district": "ERODE",
    "state": "TAMIL NADU"
  },
  {
    "pincode": "638312",
    "area": "Punnam",
    "district": "ERODE",
    "state": "TAMIL NADU"
  },
  {
    "pincode": "638312",
    "area": "Thottipalayam",
    "district": "ERODE",
    "state": "TAMIL NADU"
  },
  {
    "pincode": "638312",
    "area": "Kadayampatti",
    "district": "ERODE",
    "state": "TAMIL NADU"
  },
  {
    "pincode": "638312",
    "area": "Kuttipalayam",
    "district": "ERODE",
    "state": "TAMIL NADU"
  },
  {
    "pincode": "638312",
    "area": "Dalavoipettai",
    "district": "ERODE",
    "state": "TAMIL NADU"
  },
  {
    "pincode": "638312",
    "area": "Paruvachi",
    "district": "ERODE",
    "state": "TAMIL NADU"
  },
  {
    "pincode": "638312",
    "area": "Vairamangalam",
    "district": "ERODE",
    "state": "TAMIL NADU"
  },
  {
    "pincode": "638312",
    "area": "Jambai",
    "district": "ERODE",
    "state": "TAMIL NADU"
  },
  {
    "pincode": "638313",
    "area": "Mevani",
    "district": "ERODE",
    "state": "TAMIL NADU"
  },
  {
    "pincode": "638313",
    "area": "Pudukaraipudur",
    "district": "ERODE",
    "state": "TAMIL NADU"
  },
  {
    "pincode": "638313",
    "area": "Kugalur",
    "district": "ERODE",
    "state": "TAMIL NADU"
  },
  {
    "pincode": "638314",
    "area": "Kannadipalayam",
    "district": "ERODE",
    "state": "TAMIL NADU"
  },
  {
    "pincode": "638314",
    "area": "Mukasipudur",
    "district": "ERODE",
    "state": "TAMIL NADU"
  },
  {
    "pincode": "638314",
    "area": "Olagadam",
    "district": "ERODE",
    "state": "TAMIL NADU"
  },
  {
    "pincode": "638314",
    "area": "Mathur",
    "district": "ERODE",
    "state": "TAMIL NADU"
  },
  {
    "pincode": "638314",
    "area": "Sembadapalayam",
    "district": "ERODE",
    "state": "TAMIL NADU"
  },
  {
    "pincode": "638314",
    "area": "Vellitirupur",
    "district": "ERODE",
    "state": "TAMIL NADU"
  },
  {
    "pincode": "638314",
    "area": "Pachampalayam",
    "district": "ERODE",
    "state": "TAMIL NADU"
  },
  {
    "pincode": "638314",
    "area": "Kalbhavi",
    "district": "ERODE",
    "state": "TAMIL NADU"
  },
  {
    "pincode": "638314",
    "area": "Kurichi",
    "district": "ERODE",
    "state": "TAMIL NADU"
  },
  {
    "pincode": "638314",
    "area": "Mylambadi",
    "district": "ERODE",
    "state": "TAMIL NADU"
  },
  {
    "pincode": "638314",
    "area": "Patlur",
    "district": "ERODE",
    "state": "TAMIL NADU"
  },
  {
    "pincode": "638315",
    "area": "Perundalaiyur",
    "district": "ERODE",
    "state": "TAMIL NADU"
  },
  {
    "pincode": "638315",
    "area": "Sinthagoundenpalayam",
    "district": "ERODE",
    "state": "TAMIL NADU"
  },
  {
    "pincode": "638315",
    "area": "Vellalapalayam",
    "district": "ERODE",
    "state": "TAMIL NADU"
  },
  {
    "pincode": "638315",
    "area": "Appakudal",
    "district": "ERODE",
    "state": "TAMIL NADU"
  },
  {
    "pincode": "638315",
    "area": "Koothampoondi",
    "district": "ERODE",
    "state": "TAMIL NADU"
  },
  {
    "pincode": "638315",
    "area": "Mettupalayam",
    "district": "ERODE",
    "state": "TAMIL NADU"
  },
  {
    "pincode": "638315",
    "area": "Sakthinagar",
    "district": "ERODE",
    "state": "TAMIL NADU"
  },
  {
    "pincode": "638315",
    "area": "Brahmadesam",
    "district": "ERODE",
    "state": "TAMIL NADU"
  },
  {
    "pincode": "638315",
    "area": "Oricheri",
    "district": "ERODE",
    "state": "TAMIL NADU"
  },
  {
    "pincode": "638316",
    "area": "Vasavi College",
    "district": "ERODE",
    "state": "TAMIL NADU"
  },
  {
    "pincode": "638316",
    "area": "Kalingarayanpalayam Pudur",
    "district": "ERODE",
    "state": "TAMIL NADU"
  },
  {
    "pincode": "638316",
    "area": "Elavamalai",
    "district": "ERODE",
    "state": "TAMIL NADU"
  },
  {
    "pincode": "638401",
    "area": "Chikkarasampalayam",
    "district": "ERODE",
    "state": "TAMIL NADU"
  },
  {
    "pincode": "638401",
    "area": "Dhimbam",
    "district": "ERODE",
    "state": "TAMIL NADU"
  },
  {
    "pincode": "638401",
    "area": "Puduvadavalli",
    "district": "ERODE",
    "state": "TAMIL NADU"
  },
  {
    "pincode": "638401",
    "area": "Alathucombai",
    "district": "ERODE",
    "state": "TAMIL NADU"
  },
  {
    "pincode": "638401",
    "area": "Sathyamangalam",
    "district": "ERODE",
    "state": "TAMIL NADU"
  },
  {
    "pincode": "638401",
    "area": "Kottuveerampalayam",
    "district": "ERODE",
    "state": "TAMIL NADU"
  },
  {
    "pincode": "638401",
    "area": "Araipalayam",
    "district": "ERODE",
    "state": "TAMIL NADU"
  },
  {
    "pincode": "638401",
    "area": "Ikkarainegamam",
    "district": "ERODE",
    "state": "TAMIL NADU"
  },
  {
    "pincode": "638401",
    "area": "Komarapalayamsathy",
    "district": "ERODE",
    "state": "TAMIL NADU"
  },
  {
    "pincode": "638401",
    "area": "Germalam",
    "district": "ERODE",
    "state": "TAMIL NADU"
  },
  {
    "pincode": "638401",
    "area": "Bannari",
    "district": "ERODE",
    "state": "TAMIL NADU"
  },
  {
    "pincode": "638401",
    "area": "Hassanur",
    "district": "ERODE",
    "state": "TAMIL NADU"
  },
  {
    "pincode": "638401",
    "area": "Thingalur",
    "district": "ERODE",
    "state": "TAMIL NADU"
  },
  {
    "pincode": "638402",
    "area": "Konamoolai",
    "district": "ERODE",
    "state": "TAMIL NADU"
  },
  {
    "pincode": "638402",
    "area": "Periyur",
    "district": "ERODE",
    "state": "TAMIL NADU"
  },
  {
    "pincode": "638402",
    "area": "Shenbagapudur",
    "district": "ERODE",
    "state": "TAMIL NADU"
  },
  {
    "pincode": "638402",
    "area": "Rangasamudram",
    "district": "ERODE",
    "state": "TAMIL NADU"
  },
  {
    "pincode": "638402",
    "area": "Kavilipalayam",
    "district": "ERODE",
    "state": "TAMIL NADU"
  },
  {
    "pincode": "638402",
    "area": "Sundakkampalayam",
    "district": "ERODE",
    "state": "TAMIL NADU"
  },
  {
    "pincode": "638402",
    "area": "Ukkaram",
    "district": "ERODE",
    "state": "TAMIL NADU"
  },
  {
    "pincode": "638402",
    "area": "Ariyappampalayam",
    "district": "ERODE",
    "state": "TAMIL NADU"
  },
  {
    "pincode": "638402",
    "area": "Uthandiyur",
    "district": "ERODE",
    "state": "TAMIL NADU"
  },
  {
    "pincode": "638402",
    "area": "Valipalayam",
    "district": "ERODE",
    "state": "TAMIL NADU"
  },
  {
    "pincode": "638402",
    "area": "Vinnapalli",
    "district": "ERODE",
    "state": "TAMIL NADU"
  },
  {
    "pincode": "638451",
    "area": "Bhavanisagar",
    "district": "ERODE",
    "state": "TAMIL NADU"
  },
  {
    "pincode": "638451",
    "area": "Pudupeerkadavu",
    "district": "ERODE",
    "state": "TAMIL NADU"
  },
  {
    "pincode": "638451",
    "area": "Rajannagar",
    "district": "ERODE",
    "state": "TAMIL NADU"
  },
  {
    "pincode": "638451",
    "area": "Doddampalayam",
    "district": "ERODE",
    "state": "TAMIL NADU"
  },
  {
    "pincode": "638451",
    "area": "Ikkaraithathapalli",
    "district": "ERODE",
    "state": "TAMIL NADU"
  },
  {
    "pincode": "638451",
    "area": "Kothamangalam",
    "district": "ERODE",
    "state": "TAMIL NADU"
  },
  {
    "pincode": "638451",
    "area": "Thoppampalayam",
    "district": "ERODE",
    "state": "TAMIL NADU"
  },
  {
    "pincode": "638452",
    "area": "Gobichettipalayam",
    "district": "ERODE",
    "state": "TAMIL NADU"
  },
  {
    "pincode": "638452",
    "area": "Gobichettipalayam East",
    "district": "ERODE",
    "state": "TAMIL NADU"
  },
  {
    "pincode": "638453",
    "area": "Kalingiam",
    "district": "ERODE",
    "state": "TAMIL NADU"
  },
  {
    "pincode": "638453",
    "area": "Ayalur",
    "district": "ERODE",
    "state": "TAMIL NADU"
  },
  {
    "pincode": "638453",
    "area": "Kottupullampalayam",
    "district": "ERODE",
    "state": "TAMIL NADU"
  },
  {
    "pincode": "638453",
    "area": "Alukuli",
    "district": "ERODE",
    "state": "TAMIL NADU"
  },
  {
    "pincode": "638453",
    "area": "Karattadipalayam",
    "district": "ERODE",
    "state": "TAMIL NADU"
  },
  {
    "pincode": "638454",
    "area": "Arasur",
    "district": "ERODE",
    "state": "TAMIL NADU"
  },
  {
    "pincode": "638454",
    "area": "Kasipalayam SO Erode",
    "district": "ERODE",
    "state": "TAMIL NADU"
  },
  {
    "pincode": "638454",
    "area": "Odayagoundenpalayam",
    "district": "ERODE",
    "state": "TAMIL NADU"
  },
  {
    "pincode": "638454",
    "area": "Akkaraikodiveri",
    "district": "ERODE",
    "state": "TAMIL NADU"
  },
  {
    "pincode": "638454",
    "area": "Gudakkarai",
    "district": "ERODE",
    "state": "TAMIL NADU"
  },
  {
    "pincode": "638454",
    "area": "Kadathur Gobi",
    "district": "ERODE",
    "state": "TAMIL NADU"
  },
  {
    "pincode": "638455",
    "area": "Ayyampalayam",
    "district": "ERODE",
    "state": "TAMIL NADU"
  },
  {
    "pincode": "638455",
    "area": "Kavindapadi",
    "district": "ERODE",
    "state": "TAMIL NADU"
  },
  {
    "pincode": "638455",
    "area": "Alathur",
    "district": "ERODE",
    "state": "TAMIL NADU"
  },
  {
    "pincode": "638455",
    "area": "Kalichettipalayam Mettupalayam",
    "district": "ERODE",
    "state": "TAMIL NADU"
  },
  {
    "pincode": "638455",
    "area": "LMPalapalayam",
    "district": "ERODE",
    "state": "TAMIL NADU"
  },
  {
    "pincode": "638455",
    "area": "Salangapalayam",
    "district": "ERODE",
    "state": "TAMIL NADU"
  },
  {
    "pincode": "638455",
    "area": "Singanallur KVP",
    "district": "ERODE",
    "state": "TAMIL NADU"
  },
  {
    "pincode": "638455",
    "area": "Odathurai",
    "district": "ERODE",
    "state": "TAMIL NADU"
  },
  {
    "pincode": "638455",
    "area": "Pandiampalayam",
    "district": "ERODE",
    "state": "TAMIL NADU"
  },
  {
    "pincode": "638455",
    "area": "Periapuliyur",
    "district": "ERODE",
    "state": "TAMIL NADU"
  },
  {
    "pincode": "638456",
    "area": "Talguni",
    "district": "ERODE",
    "state": "TAMIL NADU"
  },
  {
    "pincode": "638456",
    "area": "Theethampalayam",
    "district": "ERODE",
    "state": "TAMIL NADU"
  },
  {
    "pincode": "638456",
    "area": "Kolappalur SO Erode",
    "district": "ERODE",
    "state": "TAMIL NADU"
  },
  {
    "pincode": "638457",
    "area": "Karattupalayam",
    "district": "ERODE",
    "state": "TAMIL NADU"
  },
  {
    "pincode": "638457",
    "area": "Kummakalipalayam",
    "district": "ERODE",
    "state": "TAMIL NADU"
  },
  {
    "pincode": "638457",
    "area": "Kurumandur",
    "district": "ERODE",
    "state": "TAMIL NADU"
  },
  {
    "pincode": "638457",
    "area": "AlingiamGobi",
    "district": "ERODE",
    "state": "TAMIL NADU"
  },
  {
    "pincode": "638458",
    "area": "Elathur Chettipalayam",
    "district": "ERODE",
    "state": "TAMIL NADU"
  },
  {
    "pincode": "638458",
    "area": "Kidarai",
    "district": "ERODE",
    "state": "TAMIL NADU"
  },
  {
    "pincode": "638458",
    "area": "Nambiyur",
    "district": "ERODE",
    "state": "TAMIL NADU"
  },
  {
    "pincode": "638458",
    "area": "Polavapalayam",
    "district": "ERODE",
    "state": "TAMIL NADU"
  },
  {
    "pincode": "638458",
    "area": "Koshanam",
    "district": "ERODE",
    "state": "TAMIL NADU"
  },
  {
    "pincode": "638459",
    "area": "Nochikuttai",
    "district": "ERODE",
    "state": "TAMIL NADU"
  },
  {
    "pincode": "638459",
    "area": "Nallur",
    "district": "ERODE",
    "state": "TAMIL NADU"
  },
  {
    "pincode": "638459",
    "area": "Panayampalli",
    "district": "ERODE",
    "state": "TAMIL NADU"
  },
  {
    "pincode": "638459",
    "area": "Madampalayam",
    "district": "ERODE",
    "state": "TAMIL NADU"
  },
  {
    "pincode": "638459",
    "area": "Punjai Puliampatti",
    "district": "ERODE",
    "state": "TAMIL NADU"
  },
  {
    "pincode": "638459",
    "area": "Desipalayam",
    "district": "ERODE",
    "state": "TAMIL NADU"
  },
  {
    "pincode": "638459",
    "area": "Karapadi",
    "district": "ERODE",
    "state": "TAMIL NADU"
  },
  {
    "pincode": "638460",
    "area": "Savakattupalayam",
    "district": "ERODE",
    "state": "TAMIL NADU"
  },
  {
    "pincode": "638460",
    "area": "Emmampoondi",
    "district": "ERODE",
    "state": "TAMIL NADU"
  },
  {
    "pincode": "638460",
    "area": "Olalakoil",
    "district": "ERODE",
    "state": "TAMIL NADU"
  },
  {
    "pincode": "638461",
    "area": "Aralavadi",
    "district": "ERODE",
    "state": "TAMIL NADU"
  },
  {
    "pincode": "638461",
    "area": "Erahanahalli",
    "district": "ERODE",
    "state": "TAMIL NADU"
  },
  {
    "pincode": "638461",
    "area": "Doddapura",
    "district": "ERODE",
    "state": "TAMIL NADU"
  },
  {
    "pincode": "638461",
    "area": "Chimtahalli",
    "district": "ERODE",
    "state": "TAMIL NADU"
  },
  {
    "pincode": "638461",
    "area": "Doddagajanur",
    "district": "ERODE",
    "state": "TAMIL NADU"
  },
  {
    "pincode": "638461",
    "area": "Neithalapuram",
    "district": "ERODE",
    "state": "TAMIL NADU"
  },
  {
    "pincode": "638461",
    "area": "Soosaipuram",
    "district": "ERODE",
    "state": "TAMIL NADU"
  },
  {
    "pincode": "638461",
    "area": "Tegnarai",
    "district": "ERODE",
    "state": "TAMIL NADU"
  },
  {
    "pincode": "638461",
    "area": "Chikkahalli",
    "district": "ERODE",
    "state": "TAMIL NADU"
  },
  {
    "pincode": "638461",
    "area": "Gettavadi",
    "district": "ERODE",
    "state": "TAMIL NADU"
  },
  {
    "pincode": "638461",
    "area": "Gumtapuram",
    "district": "ERODE",
    "state": "TAMIL NADU"
  },
  {
    "pincode": "638461",
    "area": "Mallanguli",
    "district": "ERODE",
    "state": "TAMIL NADU"
  },
  {
    "pincode": "638461",
    "area": "Panakkahalli",
    "district": "ERODE",
    "state": "TAMIL NADU"
  },
  {
    "pincode": "638461",
    "area": "Talamalai",
    "district": "ERODE",
    "state": "TAMIL NADU"
  },
  {
    "pincode": "638461",
    "area": "Talavadi",
    "district": "ERODE",
    "state": "TAMIL NADU"
  },
  {
    "pincode": "638462",
    "area": "AnjanurVemandampalayam",
    "district": "ERODE",
    "state": "TAMIL NADU"
  },
  {
    "pincode": "638462",
    "area": "Irugalur",
    "district": "ERODE",
    "state": "TAMIL NADU"
  },
  {
    "pincode": "638462",
    "area": "Pattimaniakaranpalayam",
    "district": "ERODE",
    "state": "TAMIL NADU"
  },
  {
    "pincode": "638462",
    "area": "Varapalayam",
    "district": "ERODE",
    "state": "TAMIL NADU"
  },
  {
    "pincode": "638462",
    "area": "Vemandampalayam",
    "district": "ERODE",
    "state": "TAMIL NADU"
  },
  {
    "pincode": "638476",
    "area": "Nanjagoundenpalayam",
    "district": "ERODE",
    "state": "TAMIL NADU"
  },
  {
    "pincode": "638476",
    "area": "Pariyur Vellalapalayam",
    "district": "ERODE",
    "state": "TAMIL NADU"
  },
  {
    "pincode": "638476",
    "area": "Kullampalayam",
    "district": "ERODE",
    "state": "TAMIL NADU"
  },
  {
    "pincode": "638476",
    "area": "Gobichettipalayam South",
    "district": "ERODE",
    "state": "TAMIL NADU"
  },
  {
    "pincode": "638476",
    "area": "Kadukkampalayam",
    "district": "ERODE",
    "state": "TAMIL NADU"
  },
  {
    "pincode": "638476",
    "area": "Nagadevampalayam",
    "district": "ERODE",
    "state": "TAMIL NADU"
  },
  {
    "pincode": "638476",
    "area": "Polavakalipalayam",
    "district": "ERODE",
    "state": "TAMIL NADU"
  },
  {
    "pincode": "638476",
    "area": "Pudupalayam SO Erode",
    "district": "ERODE",
    "state": "TAMIL NADU"
  },
  {
    "pincode": "638501",
    "area": "Alampalayam",
    "district": "ERODE",
    "state": "TAMIL NADU"
  },
  {
    "pincode": "638501",
    "area": "BargurAnthiyur",
    "district": "ERODE",
    "state": "TAMIL NADU"
  },
  {
    "pincode": "638501",
    "area": "Ennamangalam",
    "district": "ERODE",
    "state": "TAMIL NADU"
  },
  {
    "pincode": "638501",
    "area": "Gettisamudram Colony",
    "district": "ERODE",
    "state": "TAMIL NADU"
  },
  {
    "pincode": "638501",
    "area": "Sankarapalayam",
    "district": "ERODE",
    "state": "TAMIL NADU"
  },
  {
    "pincode": "638501",
    "area": "Sembulichampalayam",
    "district": "ERODE",
    "state": "TAMIL NADU"
  },
  {
    "pincode": "638501",
    "area": "Anthiyur",
    "district": "ERODE",
    "state": "TAMIL NADU"
  },
  {
    "pincode": "638501",
    "area": "Gettisamudram",
    "district": "ERODE",
    "state": "TAMIL NADU"
  },
  {
    "pincode": "638501",
    "area": "Thamaraikarai",
    "district": "ERODE",
    "state": "TAMIL NADU"
  },
  {
    "pincode": "638501",
    "area": "Michaelpalayam",
    "district": "ERODE",
    "state": "TAMIL NADU"
  },
  {
    "pincode": "638501",
    "area": "Thavittupalayam",
    "district": "ERODE",
    "state": "TAMIL NADU"
  },
  {
    "pincode": "638502",
    "area": "Kuppandampalayam",
    "district": "ERODE",
    "state": "TAMIL NADU"
  },
  {
    "pincode": "638502",
    "area": "Savandapur",
    "district": "ERODE",
    "state": "TAMIL NADU"
  },
  {
    "pincode": "638502",
    "area": "Kilwani",
    "district": "ERODE",
    "state": "TAMIL NADU"
  },
  {
    "pincode": "638502",
    "area": "Nagalur",
    "district": "ERODE",
    "state": "TAMIL NADU"
  },
  {
    "pincode": "638502",
    "area": "Athani SO Erode",
    "district": "ERODE",
    "state": "TAMIL NADU"
  },
  {
    "pincode": "638502",
    "area": "ASembulichampalayam",
    "district": "ERODE",
    "state": "TAMIL NADU"
  },
  {
    "pincode": "638503",
    "area": "Kalkadambur",
    "district": "ERODE",
    "state": "TAMIL NADU"
  },
  {
    "pincode": "638503",
    "area": "Karalayam",
    "district": "ERODE",
    "state": "TAMIL NADU"
  },
  {
    "pincode": "638503",
    "area": "Kondapanaickenpalayam",
    "district": "ERODE",
    "state": "TAMIL NADU"
  },
  {
    "pincode": "638503",
    "area": "Guthialathur",
    "district": "ERODE",
    "state": "TAMIL NADU"
  },
  {
    "pincode": "638503",
    "area": "Dasappagoundenpudur",
    "district": "ERODE",
    "state": "TAMIL NADU"
  },
  {
    "pincode": "638503",
    "area": "Basuvanapuram",
    "district": "ERODE",
    "state": "TAMIL NADU"
  },
  {
    "pincode": "638503",
    "area": "Pavalakuttai B.O",
    "district": "ERODE",
    "state": "TAMIL NADU"
  },
  {
    "pincode": "638503",
    "area": "Kembanaickenpalayam",
    "district": "ERODE",
    "state": "TAMIL NADU"
  },
  {
    "pincode": "638503",
    "area": "Kodiveri",
    "district": "ERODE",
    "state": "TAMIL NADU"
  },
  {
    "pincode": "638503",
    "area": "Satamugai",
    "district": "ERODE",
    "state": "TAMIL NADU"
  },
  {
    "pincode": "638504",
    "area": "Komarayanur",
    "district": "ERODE",
    "state": "TAMIL NADU"
  },
  {
    "pincode": "638504",
    "area": "Chennampatti",
    "district": "ERODE",
    "state": "TAMIL NADU"
  },
  {
    "pincode": "638504",
    "area": "Reddipalayam",
    "district": "ERODE",
    "state": "TAMIL NADU"
  },
  {
    "pincode": "638504",
    "area": "Murali",
    "district": "ERODE",
    "state": "TAMIL NADU"
  },
  {
    "pincode": "638504",
    "area": "Palakuttaipattipudur",
    "district": "ERODE",
    "state": "TAMIL NADU"
  },
  {
    "pincode": "638504",
    "area": "Guruvareddiyur",
    "district": "ERODE",
    "state": "TAMIL NADU"
  },
  {
    "pincode": "638505",
    "area": "Kanakkampalayam",
    "district": "ERODE",
    "state": "TAMIL NADU"
  },
  {
    "pincode": "638505",
    "area": "KondayampalayamBhavani",
    "district": "ERODE",
    "state": "TAMIL NADU"
  },
  {
    "pincode": "638505",
    "area": "Perumugaipudur",
    "district": "ERODE",
    "state": "TAMIL NADU"
  },
  {
    "pincode": "638505",
    "area": "Kallipatti",
    "district": "ERODE",
    "state": "TAMIL NADU"
  },
  {
    "pincode": "638505",
    "area": "Erangattur",
    "district": "ERODE",
    "state": "TAMIL NADU"
  },
  {
    "pincode": "638506",
    "area": "Arakkankottai",
    "district": "ERODE",
    "state": "TAMIL NADU"
  },
  {
    "pincode": "638506",
    "area": "Pullappanaickenpalayam",
    "district": "ERODE",
    "state": "TAMIL NADU"
  },
  {
    "pincode": "638506",
    "area": "Kongarpalayam",
    "district": "ERODE",
    "state": "TAMIL NADU"
  },
  {
    "pincode": "638506",
    "area": "Thuckanaickenpalayam",
    "district": "ERODE",
    "state": "TAMIL NADU"
  },
  {
    "pincode": "638506",
    "area": "Nanjai Puliampatti",
    "district": "ERODE",
    "state": "TAMIL NADU"
  },
  {
    "pincode": "638506",
    "area": "Punjaithuraiyampalayam",
    "district": "ERODE",
    "state": "TAMIL NADU"
  },
  {
    "pincode": "638751",
    "area": "Sirukalanji",
    "district": "ERODE",
    "state": "TAMIL NADU"
  },
  {
    "pincode": "638751",
    "area": "Koothampalayam",
    "district": "ERODE",
    "state": "TAMIL NADU"
  },
  {
    "pincode": "638751",
    "area": "Punjaipalatholuvu",
    "district": "ERODE",
    "state": "TAMIL NADU"
  },
  {
    "pincode": "638751",
    "area": "Thippampalayam",
    "district": "ERODE",
    "state": "TAMIL NADU"
  },
  {
    "pincode": "641302",
    "area": "Periakallipatti",
    "district": "ERODE",
    "state": "TAMIL NADU"
  }
]